SPACEWAY 1              
1 28644U 05015A   17345.52374301 -.00000109  00000-0  00000+0 0  9990
2 28644   0.0456 180.0155 0000129  88.8901 257.1464  1.00271414 46332
